{
  "type": "FeatureCollection",
  "features": [
    {
      "type": "Feature",
      "properties": {
        "norad_id": 31358,
        "name": "FENGYUN 1C DEB",
        "group": "fengyun-1c-debris",
        "lat": 65.64082621825276,
        "lon": 113.537585691356,
        "alt_km": 483.33461445139255,
        "timestamp": "2025-12-07T03:52:32.779305+00:00",
        "meta_object_name": "FENGYUN 1C DEB",
        "meta_object_id": "1999-025BRN",
        "meta_epoch": "2025-12-06T02:02:02.438880",
        "meta_mean_motion": 15.15676606,
        "meta_eccentricity": 0.00423712,
        "meta_inclination": 98.9074,
        "meta_ra_of_asc_node": 272.0085,
        "meta_arg_of_pericenter": 132.7021,
        "meta_mean_anomaly": 227.7789,
        "meta_ephemeris_type": 0,
        "meta_classification_type": "U",
        "meta_norad_cat_id": 31358,
        "meta_element_set_no": 999,
        "meta_rev_at_epoch": 97469,
        "meta_bstar": 0.0098469837,
        "meta_mean_motion_dot": 0.00196477,
        "meta_mean_motion_ddot": 0,
        "tle_line1": "1 31358U 99025BRN 25340.08475045  .00196477  00000+0  98470-2 0  9995",
        "tle_line2": "2 31358  98.9074 272.0085 0042371 132.7021 227.7789 15.15676606974696"
      },
      "geometry": {
        "type": "Point",
        "coordinates": [
          113.537585691356,
          65.64082621825276
        ]
      }
    },
    {
      "type": "Feature",
      "properties": {
        "norad_id": 31361,
        "name": "FENGYUN 1C DEB",
        "group": "fengyun-1c-debris",
        "lat": -14.511525523705936,
        "lon": 134.44777745228606,
        "alt_km": 847.950423059212,
        "timestamp": "2025-12-07T03:52:32.779315+00:00",
        "meta_object_name": "FENGYUN 1C DEB",
        "meta_object_id": "1999-025BRR",
        "meta_epoch": "2025-12-04T17:22:36.522048",
        "meta_mean_motion": 14.17738224,
        "meta_eccentricity": 0.00461596,
        "meta_inclination": 98.5501,
        "meta_ra_of_asc_node": 314.3331,
        "meta_arg_of_pericenter": 93.2299,
        "meta_mean_anomaly": 267.4159,
        "meta_ephemeris_type": 0,
        "meta_classification_type": "U",
        "meta_norad_cat_id": 31361,
        "meta_element_set_no": 999,
        "meta_rev_at_epoch": 96450,
        "meta_bstar": 0.00021443,
        "meta_mean_motion_dot": 4e-06,
        "meta_mean_motion_ddot": 0,
        "tle_line1": "1 31361U 99025BRR 25338.72403382  .00000400  00000+0  21443-3 0  9999",
        "tle_line2": "2 31361  98.5501 314.3331 0046159  93.2299 267.4159 14.17738224964508"
      },
      "geometry": {
        "type": "Point",
        "coordinates": [
          134.44777745228606,
          -14.511525523705936
        ]
      }
    },
    {
      "type": "Feature",
      "properties": {
        "norad_id": 31362,
        "name": "FENGYUN 1C DEB",
        "group": "fengyun-1c-debris",
        "lat": 0.7967153055092678,
        "lon": 155.78112461571342,
        "alt_km": 832.025815776693,
        "timestamp": "2025-12-07T03:52:32.779325+00:00",
        "meta_object_name": "FENGYUN 1C DEB",
        "meta_object_id": "1999-025BRS",
        "meta_epoch": "2025-12-04T05:34:19.308288",
        "meta_mean_motion": 14.17369803,
        "meta_eccentricity": 0.0019096,
        "meta_inclination": 98.6521,
        "meta_ra_of_asc_node": 332.8085,
        "meta_arg_of_pericenter": 118.8097,
        "meta_mean_anomaly": 241.4998,
        "meta_ephemeris_type": 0,
        "meta_classification_type": "U",
        "meta_norad_cat_id": 31362,
        "meta_element_set_no": 999,
        "meta_rev_at_epoch": 96455,
        "meta_bstar": 0.00030253,
        "meta_mean_motion_dot": 5.71e-06,
        "meta_mean_motion_ddot": 0,
        "tle_line1": "1 31362U 99025BRS 25338.23216792  .00000571  00000+0  30253-3 0  9991",
        "tle_line2": "2 31362  98.6521 332.8085 0019096 118.8097 241.4998 14.17369803964554"
      },
      "geometry": {
        "type": "Point",
        "coordinates": [
          155.78112461571342,
          0.7967153055092678
        ]
      }
    },
    {
      "type": "Feature",
      "properties": {
        "norad_id": 31364,
        "name": "FENGYUN 1C DEB",
        "group": "fengyun-1c-debris",
        "lat": -72.70779457823004,
        "lon": -111.0183369934536,
        "alt_km": 851.9707356902936,
        "timestamp": "2025-12-07T03:52:32.779335+00:00",
        "meta_object_name": "FENGYUN 1C DEB",
        "meta_object_id": "1999-025BRU",
        "meta_epoch": "2025-12-06T14:47:44.513088",
        "meta_mean_motion": 14.14541792,
        "meta_eccentricity": 0.00947103,
        "meta_inclination": 99.2635,
        "meta_ra_of_asc_node": 100.0339,
        "meta_arg_of_pericenter": 165.5534,
        "meta_mean_anomaly": 194.838,
        "meta_ephemeris_type": 0,
        "meta_classification_type": "U",
        "meta_norad_cat_id": 31364,
        "meta_element_set_no": 999,
        "meta_rev_at_epoch": 94790,
        "meta_bstar": 0.0054442892,
        "meta_mean_motion_dot": 0.00010877,
        "meta_mean_motion_ddot": 0,
        "tle_line1": "1 31364U 99025BRU 25340.61648742  .00010877  00000+0  54443-2 0  9998",
        "tle_line2": "2 31364  99.2635 100.0339 0094710 165.5534 194.8380 14.14541792947909"
      },
      "geometry": {
        "type": "Point",
        "coordinates": [
          -111.0183369934536,
          -72.70779457823004
        ]
      }
    },
    {
      "type": "Feature",
      "properties": {
        "norad_id": 31365,
        "name": "FENGYUN 1C DEB",
        "group": "fengyun-1c-debris",
        "lat": 16.18180188114374,
        "lon": 63.58199855390081,
        "alt_km": 776.4943809498918,
        "timestamp": "2025-12-07T03:52:32.779345+00:00",
        "meta_object_name": "FENGYUN 1C DEB",
        "meta_object_id": "1999-025BRV",
        "meta_epoch": "2025-12-05T11:49:26.615424",
        "meta_mean_motion": 14.416922,
        "meta_eccentricity": 0.0042058,
        "meta_inclination": 98.6752,
        "meta_ra_of_asc_node": 64.4266,
        "meta_arg_of_pericenter": 240.921,
        "meta_mean_anomaly": 118.7763,
        "meta_ephemeris_type": 0,
        "meta_classification_type": "U",
        "meta_norad_cat_id": 31365,
        "meta_element_set_no": 999,
        "meta_rev_at_epoch": 96524,
        "meta_bstar": 0.0039349725,
        "meta_mean_motion_dot": 0.00012941,
        "meta_mean_motion_ddot": 0,
        "tle_line1": "1 31365U 99025BRV 25339.49266916  .00012941  00000+0  39350-2 0  9996",
        "tle_line2": "2 31365  98.6752  64.4266 0042058 240.9210 118.7763 14.41692200965240"
      },
      "geometry": {
        "type": "Point",
        "coordinates": [
          63.58199855390081,
          16.18180188114374
        ]
      }
    },
    {
      "type": "Feature",
      "properties": {
        "norad_id": 31367,
        "name": "FENGYUN 1C DEB",
        "group": "fengyun-1c-debris",
        "lat": 14.634220330768791,
        "lon": 57.54160326573551,
        "alt_km": 782.016659739802,
        "timestamp": "2025-12-07T03:52:32.779356+00:00",
        "meta_object_name": "FENGYUN 1C DEB",
        "meta_object_id": "1999-025BRX",
        "meta_epoch": "2025-12-06T15:46:19.495776",
        "meta_mean_motion": 14.47445401,
        "meta_eccentricity": 0.0099786,
        "meta_inclination": 98.7465,
        "meta_ra_of_asc_node": 234.7165,
        "meta_arg_of_pericenter": 34.5291,
        "meta_mean_anomaly": 23.2946,
        "meta_ephemeris_type": 0,
        "meta_classification_type": "U",
        "meta_norad_cat_id": 31367,
        "meta_element_set_no": 999,
        "meta_rev_at_epoch": 98378,
        "meta_bstar": 0.0011410407,
        "meta_mean_motion_dot": 4.409e-05,
        "meta_mean_motion_ddot": 0,
        "tle_line1": "1 31367U 99025BRX 25340.65717009  .00004409  00000+0  11410-2 0  9999",
        "tle_line2": "2 31367  98.7465 234.7165 0099786  34.5291  23.2946 14.47445401983787"
      },
      "geometry": {
        "type": "Point",
        "coordinates": [
          57.54160326573551,
          14.634220330768791
        ]
      }
    },
    {
      "type": "Feature",
      "properties": {
        "norad_id": 31369,
        "name": "FENGYUN 1C DEB",
        "group": "fengyun-1c-debris",
        "lat": 56.5421623073324,
        "lon": -50.679402085895795,
        "alt_km": 829.7472464068942,
        "timestamp": "2025-12-07T03:52:32.779366+00:00",
        "meta_object_name": "FENGYUN 1C DEB",
        "meta_object_id": "1999-025BRZ",
        "meta_epoch": "2025-12-02T05:15:55.988064",
        "meta_mean_motion": 14.19388452,
        "meta_eccentricity": 0.005489,
        "meta_inclination": 98.6175,
        "meta_ra_of_asc_node": 317.7793,
        "meta_arg_of_pericenter": 330.1727,
        "meta_mean_anomaly": 47.9039,
        "meta_ephemeris_type": 0,
        "meta_classification_type": "U",
        "meta_norad_cat_id": 31369,
        "meta_element_set_no": 999,
        "meta_rev_at_epoch": 64178,
        "meta_bstar": 0.00040201,
        "meta_mean_motion_dot": 8.15e-06,
        "meta_mean_motion_ddot": 0,
        "tle_line1": "1 31369U 99025BRZ 25336.21939801  .00000815  00000+0  40201-3 0  9992",
        "tle_line2": "2 31369  98.6175 317.7793 0054890 330.1727  47.9039 14.19388452641789"
      },
      "geometry": {
        "type": "Point",
        "coordinates": [
          -50.679402085895795,
          56.5421623073324
        ]
      }
    }
  ]
}